STARLINK-33545          
1 62101U 24220P   26068.42503775  .00039641  00000+0  14410-2 0  9999
2 62101  43.0013 206.7886 0003104 295.1029  64.9501 15.27607917 72982
TEVEL2-6                
1 63215U 25052F   26068.64958975  .00021046  00000+0  70909-3 0  9996
2 63215  97.4016 325.0381 0004769  95.6604 264.5181 15.30760889 54861
